{
  "type": "FeatureCollection",
  "features": [
    {
      "type": "Feature",
      "properties": {
        "norad_id": 37238,
        "name": "INTELSAT 17 (IS-17)",
        "group": "intelsat",
        "lat": -0.019746769945224733,
        "lon": 16.624122859709114,
        "alt_km": 35785.09965474348,
        "timestamp": "2025-12-21T14:40:47.578450+00:00",
        "meta_object_name": "INTELSAT 17 (IS-17)",
        "meta_object_id": "2010-065B",
        "meta_epoch": "2025-12-20T23:48:58.695264",
        "meta_mean_motion": 1.00271515,
        "meta_eccentricity": 0.00028196,
        "meta_inclination": 0.0311,
        "meta_ra_of_asc_node": 70.1295,
        "meta_arg_of_pericenter": 221.6381,
        "meta_mean_anomaly": 221.2687,
        "meta_ephemeris_type": 0,
        "meta_classification_type": "U",
        "meta_norad_cat_id": 37238,
        "meta_element_set_no": 999,
        "meta_rev_at_epoch": 5146,
        "meta_bstar": 0,
        "meta_mean_motion_dot": 0,
        "meta_mean_motion_ddot": 0,
        "tle_line1": "1 37238U 10065B   25354.99234601  .00000000  00000+0  00000+0 0  9996",
        "tle_line2": "2 37238   0.0311  70.1295 0002819 221.6381 221.2687  1.00271515 51463"
      },
      "geometry": {
        "type": "Point",
        "coordinates": [
          16.624122859709114,
          -0.019746769945224733
        ]
      }
    },
    {
      "type": "Feature",
      "properties": {
        "norad_id": 37392,
        "name": "INTELSAT 28 (IS-28)",
        "group": "intelsat",
        "lat": -0.3513446573242898,
        "lon": -81.08226636594242,
        "alt_km": 35771.139654171304,
        "timestamp": "2025-12-21T14:40:47.578461+00:00",
        "meta_object_name": "INTELSAT 28 (IS-28)",
        "meta_object_id": "2011-016A",
        "meta_epoch": "2025-12-21T06:11:54.596256",
        "meta_mean_motion": 1.00269634,
        "meta_eccentricity": 0.00037012,
        "meta_inclination": 1.3453,
        "meta_ra_of_asc_node": 84.9654,
        "meta_arg_of_pericenter": 188.7423,
        "meta_mean_anomaly": 237.6496,
        "meta_ephemeris_type": 0,
        "meta_classification_type": "U",
        "meta_norad_cat_id": 37392,
        "meta_element_set_no": 999,
        "meta_rev_at_epoch": 5150,
        "meta_bstar": 0,
        "meta_mean_motion_dot": -2.03e-06,
        "meta_mean_motion_ddot": 0,
        "tle_line1": "1 37392U 11016A   25355.25827079 -.00000203  00000+0  00000+0 0  9997",
        "tle_line2": "2 37392   1.3453  84.9654 0003701 188.7423 237.6496  1.00269634 51501"
      },
      "geometry": {
        "type": "Point",
        "coordinates": [
          -81.08226636594242,
          -0.3513446573242898
        ]
      }
    },
    {
      "type": "Feature",
      "properties": {
        "norad_id": 37834,
        "name": "INTELSAT 18 (IS-18)",
        "group": "intelsat",
        "lat": 0.002605662032506263,
        "lon": 130.61375324533208,
        "alt_km": 35792.627519087844,
        "timestamp": "2025-12-21T14:40:47.578474+00:00",
        "meta_object_name": "INTELSAT 18 (IS-18)",
        "meta_object_id": "2011-056A",
        "meta_epoch": "2025-12-21T03:46:55.761312",
        "meta_mean_motion": 1.00272429,
        "meta_eccentricity": 0.0001706,
        "meta_inclination": 0.0317,
        "meta_ra_of_asc_node": 281.2833,
        "meta_arg_of_pericenter": 8.8906,
        "meta_mean_anomaly": 36.5404,
        "meta_ephemeris_type": 0,
        "meta_classification_type": "U",
        "meta_norad_cat_id": 37834,
        "meta_element_set_no": 999,
        "meta_rev_at_epoch": 5202,
        "meta_bstar": 0,
        "meta_mean_motion_dot": 7.6e-07,
        "meta_mean_motion_ddot": 0,
        "tle_line1": "1 37834U 11056A   25355.15758983  .00000076  00000+0  00000+0 0  9995",
        "tle_line2": "2 37834   0.0317 281.2833 0001706   8.8906  36.5404  1.00272429 52028"
      },
      "geometry": {
        "type": "Point",
        "coordinates": [
          130.61375324533208,
          0.002605662032506263
        ]
      }
    },
    {
      "type": "Feature",
      "properties": {
        "norad_id": 38098,
        "name": "INTELSAT 22 (IS-22)",
        "group": "intelsat",
        "lat": -0.0015262960152368612,
        "lon": 22.728046074496284,
        "alt_km": 35788.45516717209,
        "timestamp": "2025-12-21T14:40:47.578486+00:00",
        "meta_object_name": "INTELSAT 22 (IS-22)",
        "meta_object_id": "2012-011A",
        "meta_epoch": "2025-12-21T03:59:38.774400",
        "meta_mean_motion": 1.002706,
        "meta_eccentricity": 0.00018021,
        "meta_inclination": 0.0158,
        "meta_ra_of_asc_node": 42.157,
        "meta_arg_of_pericenter": 235.089,
        "meta_mean_anomaly": 304.7466,
        "meta_ephemeris_type": 0,
        "meta_classification_type": "U",
        "meta_norad_cat_id": 38098,
        "meta_element_set_no": 999,
        "meta_rev_at_epoch": 540,
        "meta_bstar": 0,
        "meta_mean_motion_dot": -3.5e-07,
        "meta_mean_motion_ddot": 0,
        "tle_line1": "1 38098U 12011A   25355.16642100 -.00000035  00000+0  00000+0 0  9990",
        "tle_line2": "2 38098   0.0158  42.1570 0001802 235.0890 304.7466  1.00270600  5406"
      },
      "geometry": {
        "type": "Point",
        "coordinates": [
          22.728046074496284,
          -0.0015262960152368612
        ]
      }
    },
    {
      "type": "Feature",
      "properties": {
        "norad_id": 38356,
        "name": "INTELSAT 19 (IS-19)",
        "group": "intelsat",
        "lat": 0.035685860408902044,
        "lon": 116.60099429017797,
        "alt_km": 35796.278472937556,
        "timestamp": "2025-12-21T14:40:47.578498+00:00",
        "meta_object_name": "INTELSAT 19 (IS-19)",
        "meta_object_id": "2012-030A",
        "meta_epoch": "2025-12-21T03:42:56.143872",
        "meta_mean_motion": 1.00271301,
        "meta_eccentricity": 0.00027419,
        "meta_inclination": 0.0109,
        "meta_ra_of_asc_node": 14.0621,
        "meta_arg_of_pericenter": 252.5866,
        "meta_mean_anomaly": 45.0624,
        "meta_ephemeris_type": 0,
        "meta_classification_type": "U",
        "meta_norad_cat_id": 38356,
        "meta_element_set_no": 999,
        "meta_rev_at_epoch": 4866,
        "meta_bstar": 0,
        "meta_mean_motion_dot": -3.3e-07,
        "meta_mean_motion_ddot": 0,
        "tle_line1": "1 38356U 12030A   25355.15481648 -.00000033  00000+0  00000+0 0  9993",
        "tle_line2": "2 38356   0.0109  14.0621 0002741 252.5866  45.0624  1.00271301 48669"
      },
      "geometry": {
        "type": "Point",
        "coordinates": [
          116.60099429017797,
          0.035685860408902044
        ]
      }
    },
    {
      "type": "Feature",
      "properties": {
        "norad_id": 38740,
        "name": "INTELSAT 20 (IS-20)",
        "group": "intelsat",
        "lat": -0.002304685477101453,
        "lon": 19.095003607138246,
        "alt_km": 35799.99687310404,
        "timestamp": "2025-12-21T14:40:47.578510+00:00",
        "meta_object_name": "INTELSAT 20 (IS-20)",
        "meta_object_id": "2012-043A",
        "meta_epoch": "2025-12-21T04:57:48.972384",
        "meta_mean_motion": 1.00271341,
        "meta_eccentricity": 0.00034329,
        "meta_inclination": 0.0098,
        "meta_ra_of_asc_node": 82.8196,
        "meta_arg_of_pericenter": 99.7403,
        "meta_mean_anomaly": 50.4118,
        "meta_ephemeris_type": 0,
        "meta_classification_type": "U",
        "meta_norad_cat_id": 38740,
        "meta_element_set_no": 999,
        "meta_rev_at_epoch": 4896,
        "meta_bstar": 0,
        "meta_mean_motion_dot": -1e-08,
        "meta_mean_motion_ddot": 0,
        "tle_line1": "1 38740U 12043A   25355.20681681 -.00000001  00000+0  00000+0 0  9994",
        "tle_line2": "2 38740   0.0098  82.8196 0003432  99.7403  50.4118  1.00271341 48964"
      },
      "geometry": {
        "type": "Point",
        "coordinates": [
          19.095003607138246,
          -0.002304685477101453
        ]
      }
    },
    {
      "type": "Feature",
      "properties": {
        "norad_id": 38749,
        "name": "INTELSAT 21 (IS-21)",
        "group": "intelsat",
        "lat": -0.03000664795853021,
        "lon": -107.38201707710616,
        "alt_km": 35779.69706466363,
        "timestamp": "2025-12-21T14:40:47.578523+00:00",
        "meta_object_name": "INTELSAT 21 (IS-21)",
        "meta_object_id": "2012-045A",
        "meta_epoch": "2025-12-21T06:04:25.312800",
        "meta_mean_motion": 1.00272049,
        "meta_eccentricity": 0.00015175,
        "meta_inclination": 0.0234,
        "meta_ra_of_asc_node": 291.4489,
        "meta_arg_of_pericenter": 329.5938,
        "meta_mean_anomaly": 222.1397,
        "meta_ephemeris_type": 0,
        "meta_classification_type": "U",
        "meta_norad_cat_id": 38749,
        "meta_element_set_no": 999,
        "meta_rev_at_epoch": 4874,
        "meta_bstar": 0,
        "meta_mean_motion_dot": -2.62e-06,
        "meta_mean_motion_ddot": 0,
        "tle_line1": "1 38749U 12045A   25355.25307075 -.00000262  00000+0  00000+0 0  9991",
        "tle_line2": "2 38749   0.0234 291.4489 0001517 329.5938 222.1397  1.00272049 48746"
      },
      "geometry": {
        "type": "Point",
        "coordinates": [
          -107.38201707710616,
          -0.03000664795853021
        ]
      }
    }
  ]
}